{
    "links": {
        "self": "http://www.neowsapp.com/rest/v1/neo/3766048?api_key=iIulBulltgU6a56xZRHN4H3l9WmuAYTsLGpBGhQ2"
    },
    "id": "3766048",
    "neo_reference_id": "3766048",
    "name": "(2016 XC24)",
    "designation": "2016 XC24",
    "nasa_jpl_url": "http://ssd.jpl.nasa.gov/sbdb.cgi?sstr=3766048",
    "absolute_magnitude_h": 22.5,
    "estimated_diameter": {
        "kilometers": {
            "estimated_diameter_min": 0.0840533402,
            "estimated_diameter_max": 0.1879489824
        },
        "meters": {
            "estimated_diameter_min": 84.0533402073,
            "estimated_diameter_max": 187.9489824394
        },
        "miles": {
            "estimated_diameter_min": 0.0522283081,
            "estimated_diameter_max": 0.1167860472
        },
        "feet": {
            "estimated_diameter_min": 275.7655606856,
            "estimated_diameter_max": 616.6305395464
        }
    },
    "is_potentially_hazardous_asteroid": false,
    "close_approach_data": [
        {
            "close_approach_date": "2016-12-05",
            "close_approach_date_full": "2016-Dec-05 19:49",
            "epoch_date_close_approach": 1480967340000,
            "relative_velocity": {
                "kilometers_per_second": "4.5249849432",
                "kilometers_per_hour": "16289.9457953718",
                "miles_per_hour": "10121.938819352"
            },
            "miss_distance": {
                "astronomical": "0.2742007593",
                "lunar": "106.6640953677",
                "kilometers": "41019849.543662691",
                "miles": "25488552.5865434958"
            },
            "orbiting_body": "Earth"
        }
    ],
    "orbital_data": {
        "orbit_id": "4",
        "orbit_determination_date": "2017-04-06 08:21:28",
        "first_observation_date": "2016-12-09",
        "last_observation_date": "2017-01-17",
        "data_arc_in_days": 39,
        "observations_used": 29,
        "orbit_uncertainty": "6",
        "minimum_orbit_intersection": ".264413",
        "jupiter_tisserand_invariant": "3.406",
        "epoch_osculation": "2459000.5",
        "eccentricity": ".4647809642068937",
        "semi_major_axis": "2.332295422795288",
        "inclination": "7.575547864914377",
        "ascending_node_longitude": "64.51950457111448",
        "orbital_period": "1300.989426118701",
        "perihelion_distance": "1.248288907373169",
        "perihelion_argument": "10.82475907186942",
        "aphelion_distance": "3.416301938217407",
        "perihelion_time": "2459032.104638181017",
        "mean_anomaly": "351.2546024458402",
        "mean_motion": ".2767124718868806",
        "equinox": "J2000",
        "orbit_class": {
            "orbit_class_type": "AMO",
            "orbit_class_description": "Near-Earth asteroid orbits similar to that of 1221 Amor",
            "orbit_class_range": "1.017 AU < q (perihelion) < 1.3 AU"
        }
    },
    "is_sentry_object": false
}